{
  "type": "FeatureCollection",
  "features": [
    {
      "type": "Feature",
      "properties": {
        "norad_id": 34765,
        "name": "IRIDIUM 33 DEB",
        "group": "iridium-33-debris",
        "lat": 69.95863282960094,
        "lon": 40.62008924507893,
        "alt_km": 756.4639929013429,
        "timestamp": "2025-12-17T23:38:07.238826+00:00",
        "meta_object_name": "IRIDIUM 33 DEB",
        "meta_object_id": "1997-051LJ",
        "meta_epoch": "2025-12-17T14:00:27.393696",
        "meta_mean_motion": 14.4047717,
        "meta_eccentricity": 0.00159633,
        "meta_inclination": 86.3388,
        "meta_ra_of_asc_node": 30.6831,
        "meta_arg_of_pericenter": 194.8895,
        "meta_mean_anomaly": 316.624,
        "meta_ephemeris_type": 0,
        "meta_classification_type": "U",
        "meta_norad_cat_id": 34765,
        "meta_element_set_no": 999,
        "meta_rev_at_epoch": 87683,
        "meta_bstar": 0.0003220723,
        "meta_mean_motion_dot": 1.045e-05,
        "meta_mean_motion_ddot": 0,
        "tle_line1": "1 34765U 97051LJ  25351.58365039  .00001045  00000+0  32207-3 0  9998",
        "tle_line2": "2 34765  86.3388  30.6831 0015963 194.8895 316.6240 14.40477170876831"
      },
      "geometry": {
        "type": "Point",
        "coordinates": [
          40.62008924507893,
          69.95863282960094
        ]
      }
    },
    {
      "type": "Feature",
      "properties": {
        "norad_id": 34833,
        "name": "IRIDIUM 33 DEB",
        "group": "iridium-33-debris",
        "lat": 40.42919069702918,
        "lon": 51.814071768016525,
        "alt_km": 703.1072985248065,
        "timestamp": "2025-12-17T23:38:07.238836+00:00",
        "meta_object_name": "IRIDIUM 33 DEB",
        "meta_object_id": "1997-051MH",
        "meta_epoch": "2025-12-15T10:20:22.808256",
        "meta_mean_motion": 14.52396502,
        "meta_eccentricity": 0.00217393,
        "meta_inclination": 86.3936,
        "meta_ra_of_asc_node": 49.8343,
        "meta_arg_of_pericenter": 90.4638,
        "meta_mean_anomaly": 284.9984,
        "meta_ephemeris_type": 0,
        "meta_classification_type": "U",
        "meta_norad_cat_id": 34833,
        "meta_element_set_no": 999,
        "meta_rev_at_epoch": 87754,
        "meta_bstar": 0.00054738094,
        "meta_mean_motion_dot": 2.256e-05,
        "meta_mean_motion_ddot": 0,
        "tle_line1": "1 34833U 97051MH  25349.43081954  .00002256  00000+0  54738-3 0  9994",
        "tle_line2": "2 34833  86.3936  49.8343 0021739  90.4638 284.9984 14.52396502877543"
      },
      "geometry": {
        "type": "Point",
        "coordinates": [
          51.814071768016525,
          40.42919069702918
        ]
      }
    },
    {
      "type": "Feature",
      "properties": {
        "norad_id": 34870,
        "name": "IRIDIUM 33 DEB",
        "group": "iridium-33-debris",
        "lat": 72.66488059640702,
        "lon": 119.75002011286675,
        "alt_km": 626.8474700450133,
        "timestamp": "2025-12-17T23:38:07.238846+00:00",
        "meta_object_name": "IRIDIUM 33 DEB",
        "meta_object_id": "1997-051MQ",
        "meta_epoch": "2025-12-17T15:48:12.189024",
        "meta_mean_motion": 14.76525212,
        "meta_eccentricity": 0.00169592,
        "meta_inclination": 86.3102,
        "meta_ra_of_asc_node": 311.8309,
        "meta_arg_of_pericenter": 164.6796,
        "meta_mean_anomaly": 8.9227,
        "meta_ephemeris_type": 0,
        "meta_classification_type": "U",
        "meta_norad_cat_id": 34870,
        "meta_element_set_no": 999,
        "meta_rev_at_epoch": 88983,
        "meta_bstar": 0.0011120343,
        "meta_mean_motion_dot": 7.793e-05,
        "meta_mean_motion_ddot": 0,
        "tle_line1": "1 34870U 97051MQ  25351.65847441  .00007793  00000+0  11120-2 0  9991",
        "tle_line2": "2 34870  86.3102 311.8309 0016959 164.6796   8.9227 14.76525212889837"
      },
      "geometry": {
        "type": "Point",
        "coordinates": [
          119.75002011286675,
          72.66488059640702
        ]
      }
    },
    {
      "type": "Feature",
      "properties": {
        "norad_id": 34896,
        "name": "IRIDIUM 33 DEB",
        "group": "iridium-33-debris",
        "lat": 63.75081997780684,
        "lon": 136.8506912205917,
        "alt_km": 663.5379818907522,
        "timestamp": "2025-12-17T23:38:07.238857+00:00",
        "meta_object_name": "IRIDIUM 33 DEB",
        "meta_object_id": "1997-051MY",
        "meta_epoch": "2025-12-16T04:34:33.251232",
        "meta_mean_motion": 14.66314014,
        "meta_eccentricity": 0.00246953,
        "meta_inclination": 86.3284,
        "meta_ra_of_asc_node": 325.1372,
        "meta_arg_of_pericenter": 201.8046,
        "meta_mean_anomaly": 169.754,
        "meta_ephemeris_type": 0,
        "meta_classification_type": "U",
        "meta_norad_cat_id": 34896,
        "meta_element_set_no": 999,
        "meta_rev_at_epoch": 87670,
        "meta_bstar": 0.00064317524,
        "meta_mean_motion_dot": 3.586e-05,
        "meta_mean_motion_ddot": 0,
        "tle_line1": "1 34896U 97051MY  25350.19066263  .00003586  00000+0  64318-3 0  9996",
        "tle_line2": "2 34896  86.3284 325.1372 0024695 201.8046 169.7540 14.66314014876703"
      },
      "geometry": {
        "type": "Point",
        "coordinates": [
          136.8506912205917,
          63.75081997780684
        ]
      }
    },
    {
      "type": "Feature",
      "properties": {
        "norad_id": 34926,
        "name": "IRIDIUM 33 DEB",
        "group": "iridium-33-debris",
        "lat": -18.149548044117036,
        "lon": 4.57128954046034,
        "alt_km": 694.7366165684698,
        "timestamp": "2025-12-17T23:38:07.238867+00:00",
        "meta_object_name": "IRIDIUM 33 DEB",
        "meta_object_id": "1997-051NF",
        "meta_epoch": "2025-12-17T00:44:22.710624",
        "meta_mean_motion": 14.54615203,
        "meta_eccentricity": 0.0074762,
        "meta_inclination": 86.1322,
        "meta_ra_of_asc_node": 6.2844,
        "meta_arg_of_pericenter": 277.9288,
        "meta_mean_anomaly": 110.6903,
        "meta_ephemeris_type": 0,
        "meta_classification_type": "U",
        "meta_norad_cat_id": 34926,
        "meta_element_set_no": 999,
        "meta_rev_at_epoch": 86519,
        "meta_bstar": 0.004236712,
        "meta_mean_motion_dot": 0.00018832,
        "meta_mean_motion_ddot": 0,
        "tle_line1": "1 34926U 97051NF  25351.03081841  .00018832  00000+0  42367-2 0  9992",
        "tle_line2": "2 34926  86.1322   6.2844 0074762 277.9288 110.6903 14.54615203865191"
      },
      "geometry": {
        "type": "Point",
        "coordinates": [
          4.57128954046034,
          -18.149548044117036
        ]
      }
    },
    {
      "type": "Feature",
      "properties": {
        "norad_id": 34985,
        "name": "IRIDIUM 33 DEB",
        "group": "iridium-33-debris",
        "lat": -50.00196742422886,
        "lon": -121.01829131133108,
        "alt_km": 745.3920720055312,
        "timestamp": "2025-12-17T23:38:07.238877+00:00",
        "meta_object_name": "IRIDIUM 33 DEB",
        "meta_object_id": "1997-051NR",
        "meta_epoch": "2025-12-17T11:00:14.118336",
        "meta_mean_motion": 14.42030058,
        "meta_eccentricity": 0.00212319,
        "meta_inclination": 86.3699,
        "meta_ra_of_asc_node": 54.8669,
        "meta_arg_of_pericenter": 203.8854,
        "meta_mean_anomaly": 175.561,
        "meta_ephemeris_type": 0,
        "meta_classification_type": "U",
        "meta_norad_cat_id": 34985,
        "meta_element_set_no": 999,
        "meta_rev_at_epoch": 87243,
        "meta_bstar": 0.00049637733,
        "meta_mean_motion_dot": 1.652e-05,
        "meta_mean_motion_ddot": 0,
        "tle_line1": "1 34985U 97051NR  25351.45849674  .00001652  00000+0  49638-3 0  9990",
        "tle_line2": "2 34985  86.3699  54.8669 0021231 203.8854 175.5610 14.42030058872435"
      },
      "geometry": {
        "type": "Point",
        "coordinates": [
          -121.01829131133108,
          -50.00196742422886
        ]
      }
    },
    {
      "type": "Feature",
      "properties": {
        "norad_id": 35051,
        "name": "IRIDIUM 33 DEB",
        "group": "iridium-33-debris",
        "lat": -85.8292149797415,
        "lon": -111.59112597236914,
        "alt_km": 748.2291516622936,
        "timestamp": "2025-12-17T23:38:07.238887+00:00",
        "meta_object_name": "IRIDIUM 33 DEB",
        "meta_object_id": "1997-051NX",
        "meta_epoch": "2025-12-17T07:28:14.191104",
        "meta_mean_motion": 14.47618427,
        "meta_eccentricity": 0.00105426,
        "meta_inclination": 86.3241,
        "meta_ra_of_asc_node": 6.8697,
        "meta_arg_of_pericenter": 78.4974,
        "meta_mean_anomaly": 281.7412,
        "meta_ephemeris_type": 0,
        "meta_classification_type": "U",
        "meta_norad_cat_id": 35051,
        "meta_element_set_no": 999,
        "meta_rev_at_epoch": 87062,
        "meta_bstar": 0.00048726324,
        "meta_mean_motion_dot": 1.815e-05,
        "meta_mean_motion_ddot": 0,
        "tle_line1": "1 35051U 97051NX  25351.31127536  .00001815  00000+0  48726-3 0  9994",
        "tle_line2": "2 35051  86.3241   6.8697 0010542  78.4974 281.7412 14.47618427870629"
      },
      "geometry": {
        "type": "Point",
        "coordinates": [
          -111.59112597236914,
          -85.8292149797415
        ]
      }
    }
  ]
}